$$SOE
2460721.500000000, A.D. 2025-Feb-15 00:00:00.0000, 7.572867615364608E+08, 2.411283225085323E+08, 2.772041351921523E+07,
2460728.500000000, A.D. 2025-Feb-22 00:00:00.0000, 7.554928693937937E+08, 2.483778915596137E+08, 2.954324403539903E+07,
2460735.500000000, A.D. 2025-Mar-01 00:00:00.0000, 7.536261706836002E+08, 2.556034789678961E+08, 3.136322477269620E+07,
2460742.500000000, A.D. 2025-Mar-08 00:00:00.0000, 7.516870087010313E+08, 2.628044429479324E+08, 3.318018665593328E+07,
2460749.500000000, A.D. 2025-Mar-15 00:00:00.0000, 7.496757326797777E+08, 2.699801484254315E+08, 3.499396162497151E+07,
2460756.500000000, A.D. 2025-Mar-22 00:00:00.0000, 7.475926954880294E+08, 2.771299674666515E+08, 3.680438288323061E+07,
2460763.500000000, A.D. 2025-Mar-29 00:00:00.0000, 7.454382526947207E+08, 2.842532774522565E+08, 3.861128483721276E+07,
2460770.500000000, A.D. 2025-Apr-05 00:00:00.0000, 7.432127633311975E+08, 2.913494601339462E+08, 4.041450295336202E+07,
2460777.500000000, A.D. 2025-Apr-12 00:00:00.0000, 7.409165904222038E+08, 2.984179016780782E+08, 4.221387371710363E+07,
2460784.500000000, A.D. 2025-Apr-19 00:00:00.0000, 7.385501010989805E+08, 3.054579928152990E+08, 4.400923463893059E+07,
2460791.500000000, A.D. 2025-Apr-26 00:00:00.0000, 7.361136665661575E+08, 3.124691288935466E+08, 4.580042426577464E+07,
2460798.500000000, A.D. 2025-May-03 00:00:00.0000, 7.336076620361367E+08, 3.194507098540180E+08, 4.758728218858704E+07,
2460805.500000000, A.D. 2025-May-10 00:00:00.0000, 7.310324666595767E+08, 3.264021401391649E+08, 4.936964904404145E+07,
2460812.500000000, A.D. 2025-May-17 00:00:00.0000, 7.283884634887427E+08, 3.333228284920541E+08, 5.114736650351405E+07,
2460819.500000000, A.D. 2025-May-24 00:00:00.0000, 7.256760396476990E+08, 3.402121875929456E+08, 5.292027722885731E+07,
2460826.500000000, A.D. 2025-May-31 00:00:00.0000, 7.228955871271551E+08, 3.470696338442920E+08, 5.468822478201094E+07,
2460833.500000000, A.D. 2025-Jun-07 00:00:00.0000, 7.200475038029153E+08, 3.538945885091102E+08, 5.645105362364274E+07,
2460840.500000000, A.D. 2025-Jun-14 00:00:00.0000, 7.171321923132353E+08, 3.606864795362111E+08, 5.820860936321610E+07,
2460847.500000000, A.D. 2025-Jun-21 00:00:00.0000, 7.141500580120778E+08, 3.674447408013368E+08, 5.996073888162267E+07,
2460854.500000000, A.D. 2025-Jun-28 00:00:00.0000, 7.111015091266972E+08, 3.741688105289967E+08, 6.170729018372138E+07,
2460861.500000000, A.D. 2025-Jul-05 00:00:00.0000, 7.079869576027364E+08, 3.808581310515103E+08, 6.344811229615237E+07,
2460868.500000000, A.D. 2025-Jul-12 00:00:00.0000, 7.048068194457725E+08, 3.875121491000766E+08, 6.518305525391234E+07,
2460875.500000000, A.D. 2025-Jul-19 00:00:00.0000, 7.015615147488827E+08, 3.941303160529540E+08, 6.691197011138295E+07,
2460882.500000000, A.D. 2025-Jul-26 00:00:00.0000, 6.982514676161461E+08, 4.007120880842877E+08, 6.863470895401964E+07,
2460889.500000000, A.D. 2025-Aug-02 00:00:00.0000, 6.948771060474087E+08, 4.072569262353589E+08, 7.035112490656751E+07,
2460896.500000000, A.D. 2025-Aug-09 00:00:00.0000, 6.914388618076162E+08, 4.137642963938358E+08, 7.206107213458869E+07,
2460903.500000000, A.D. 2025-Aug-16 00:00:00.0000, 6.879371703575824E+08, 4.202336691181299E+08, 7.376440582724345E+07,
2460910.500000000, A.D. 2025-Aug-23 00:00:00.0000, 6.843724711388003E+08, 4.266645193237104E+08, 7.546098213605094E+07,
2460917.500000000, A.D. 2025-Aug-30 00:00:00.0000, 6.807452085412555E+08, 4.330563265457018E+08, 7.715065809804469E+07,
2460924.500000000, A.D. 2025-Sep-06 00:00:00.0000, 6.770558321360217E+08, 4.394085767782436E+08, 7.883329175538725E+07,
2460931.500000000, A.D. 2025-Sep-13 00:00:00.0000, 6.733047945018790E+08, 4.457207634081159E+08, 8.050874242208064E+07,
2460938.500000000, A.D. 2025-Sep-20 00:00:00.0000, 6.694925499195362E+08, 4.519923855985392E+08, 8.217687066349640E+07,
2460945.500000000, A.D. 2025-Sep-27 00:00:00.0000, 6.656195549921834E+08, 4.582229472347353E+08, 8.383753814613557E+07,
2460952.500000000, A.D. 2025-Oct-04 00:00:00.0000, 6.616862691755790E+08, 4.644119569705018E+08, 8.549060758680242E+07,
2460959.500000000, A.D. 2025-Oct-11 00:00:00.0000, 6.576931548439459E+08, 4.705589284329618E+08, 8.713594275850180E+07,
2460966.500000000, A.D. 2025-Oct-18 00:00:00.0000, 6.536406771753045E+08, 4.766633803113115E+08, 8.877340850465167E+07,
2460973.500000000, A.D. 2025-Oct-25 00:00:00.0000, 6.495293039957169E+08, 4.827248363408870E+08, 9.040287074967158E+07,
2460980.500000000, A.D. 2025-Nov-01 00:00:00.0000, 6.453595056217915E+08, 4.887428251984255E+08, 9.202419650348499E+07,
2460987.500000000, A.D. 2025-Nov-08 00:00:00.0000, 6.411317547358981E+08, 4.947168802775837E+08, 9.363725385403663E+07,
2460994.500000000, A.D. 2025-Nov-15 00:00:00.0000, 6.368465264418724E+08, 5.006465392866651E+08, 9.524191192928493E+07,
2461001.500000000, A.D. 2025-Nov-22 00:00:00.0000, 6.325042989038581E+08, 5.065313438891509E+08, 9.683804080950707E+07,
2461008.500000000, A.D. 2025-Nov-29 00:00:00.0000, 6.281055544149985E+08, 5.123708405223969E+08, 9.842551149648711E+07,
2461015.500000000, A.D. 2025-Dec-06 00:00:00.0000, 6.236507786182882E+08, 5.181645822588589E+08, 1.000041961371276E+08,
2461022.500000000, A.D. 2025-Dec-13 00:00:00.0000, 6.191404583131778E+08, 5.239121283401120E+08, 1.015739681861685E+08,
2461029.500000000, A.D. 2025-Dec-20 00:00:00.0000, 6.145750813413494E+08, 5.296130424073216E+08, 1.031347022711728E+08,
2461036.500000000, A.D. 2025-Dec-27 00:00:00.0000, 6.099551374778932E+08, 5.352668920197911E+08, 1.046862740699473E+08,
2461043.500000000, A.D. 2026-Jan-03 00:00:00.0000, 6.052811188685769E+08, 5.408732488465269E+08, 1.062285602838994E+08,
2461050.500000000, A.D. 2026-Jan-10 00:00:00.0000, 6.005535201229423E+08, 5.464316888526491E+08, 1.077614386418222E+08,
2461057.500000000, A.D. 2026-Jan-17 00:00:00.0000, 5.957728382958012E+08, 5.519417923899295E+08, 1.092847879053759E+08,
2461064.500000000, A.D. 2026-Jan-24 00:00:00.0000, 5.909395728350906E+08, 5.574031442150403E+08, 1.107984878710725E+08,
2461071.500000000, A.D. 2026-Jan-31 00:00:00.0000, 5.860542255195448E+08, 5.628153334290645E+08, 1.123024193661258E+08,
2461078.500000000, A.D. 2026-Feb-07 00:00:00.0000, 5.811173004477174E+08, 5.681779532818923E+08, 1.137964642279643E+08,
2461085.500000000, A.D. 2026-Feb-14 00:00:00.0000, 5.761293043314604E+08, 5.734906008271489E+08, 1.152805052430790E+08,
2461092.500000000, A.D. 2026-Feb-21 00:00:00.0000, 5.710907474815128E+08, 5.787528770054722E+08, 1.167544260569337E+08,
2461099.500000000, A.D. 2026-Feb-28 00:00:00.0000, 5.660021444003465E+08, 5.839643883100944E+08, 1.182181112487636E+08,
2461106.500000000, A.D. 2026-Mar-07 00:00:00.0000, 5.608640119235266E+08, 5.891247480850493E+08, 1.196714466007638E+08,
2461113.500000000, A.D. 2026-Mar-14 00:00:00.0000, 5.556768676853408E+08, 5.942335751235991E+08, 1.211143191165918E+08,
2461120.500000000, A.D. 2026-Mar-21 00:00:00.0000, 5.504412306917663E+08, 5.992904924649016E+08, 1.225466168625948E+08,
2461127.500000000, A.D. 2026-Mar-28 00:00:00.0000, 5.451576219912826E+08, 6.042951274173944E+08, 1.239682289001831E+08,
2461134.500000000, A.D. 2026-Apr-04 00:00:00.0000, 5.398265648396167E+08, 6.092471118431622E+08, 1.253790452859125E+08,
2461141.500000000, A.D. 2026-Apr-11 00:00:00.0000, 5.344485846322193E+08, 6.141460823433566E+08, 1.267789570849065E+08,
2461148.500000000, A.D. 2026-Apr-18 00:00:00.0000, 5.290242087637916E+08, 6.189916803380463E+08, 1.281678563826693E+08,
2461155.500000000, A.D. 2026-Apr-25 00:00:00.0000, 5.235539664609122E+08, 6.237835520553073E+08, 1.295456362925223E+08,
2461162.500000000, A.D. 2026-May-02 00:00:00.0000, 5.180383886188285E+08, 6.285213484000480E+08, 1.309121909536573E+08,
2461169.500000000, A.D. 2026-May-09 00:00:00.0000, 5.124780077674797E+08, 6.332047246364548E+08, 1.322674155031775E+08,
2461176.500000000, A.D. 2026-May-16 00:00:00.0000, 5.068733585451890E+08, 6.378333400224898E+08, 1.336112059989295E+08,
2461183.500000000, A.D. 2026-May-23 00:00:00.0000, 5.012249787322797E+08, 6.424068584188054E+08, 1.349434593720049E+08,
2461190.500000000, A.D. 2026-May-30 00:00:00.0000, 4.955334087663088E+08, 6.469249501914847E+08, 1.362640736256031E+08,
2461197.500000000, A.D. 2026-Jun-06 00:00:00.0000, 4.897991894215292E+08, 6.513872921350522E+08, 1.375729480417538E+08,
2461204.500000000, A.D. 2026-Jun-13 00:00:00.0000, 4.840228613186753E+08, 6.557935656149287E+08, 1.388699830758554E+08,
2461211.500000000, A.D. 2026-Jun-20 00:00:00.0000, 4.782049657641935E+08, 6.601434558554316E+08, 1.401550802239051E+08,
2461218.500000000, A.D. 2026-Jun-27 00:00:00.0000, 4.723460452204822E+08, 6.644366520333503E+08, 1.414281419901241E+08,
2461225.500000000, A.D. 2026-Jul-04 00:00:00.0000, 4.664466434069349E+08, 6.686728474022137E+08, 1.426890718913678E+08,
2461232.500000000, A.D. 2026-Jul-11 00:00:00.0000, 4.605073052856598E+08, 6.728517393154058E+08, 1.439377744639769E+08,
2461239.500000000, A.D. 2026-Jul-18 00:00:00.0000, 4.545285770245575E+08, 6.769730291739402E+08, 1.451741552664034E+08,
2461246.500000000, A.D. 2026-Jul-25 00:00:00.0000, 4.485110059621570E+08, 6.810364223016895E+08, 1.463981208753665E+08,
2461253.500000000, A.D. 2026-Aug-01 00:00:00.0000, 4.424551406222616E+08, 6.850416277000495E+08, 1.476095788670030E+08,
2461260.500000000, A.D. 2026-Aug-08 00:00:00.0000, 4.363615309932356E+08, 6.889883576462862E+08, 1.488084377602436E+08,
2461267.500000000, A.D. 2026-Aug-15 00:00:00.0000, 4.302307294869431E+08, 6.928763275861287E+08, 1.499946069210746E+08,
2461274.500000000, A.D. 2026-Aug-22 00:00:00.0000, 4.240632918162476E+08, 6.967052575419996E+08, 1.511679965972268E+08,
2461281.500000000, A.D. 2026-Aug-29 00:00:00.0000, 4.178597755017298E+08, 7.004748736641552E+08, 1.523285181809711E+08,
2461288.500000000, A.D. 2026-Sep-05 00:00:00.0000, 4.116207381409780E+08, 7.041849070568879E+08, 1.534760842699727E+08,
2461295.500000000, A.D. 2026-Sep-12 00:00:00.0000, 4.053467378954333E+08, 7.078350923758124E+08, 1.546106085050965E+08,
$$EOE